{
    "links": {
        "self": "http://www.neowsapp.com/rest/v1/neo/3439561?api_key=iIulBulltgU6a56xZRHN4H3l9WmuAYTsLGpBGhQ2"
    },
    "id": "3439561",
    "neo_reference_id": "3439561",
    "name": "(2008 WP2)",
    "designation": "2008 WP2",
    "nasa_jpl_url": "http://ssd.jpl.nasa.gov/sbdb.cgi?sstr=3439561",
    "absolute_magnitude_h": 25.0,
    "estimated_diameter": {
        "kilometers": {
            "estimated_diameter_min": 0.02658,
            "estimated_diameter_max": 0.0594346868
        },
        "meters": {
            "estimated_diameter_min": 26.58,
            "estimated_diameter_max": 59.4346868419
        },
        "miles": {
            "estimated_diameter_min": 0.0165160412,
            "estimated_diameter_max": 0.0369309908
        },
        "feet": {
            "estimated_diameter_min": 87.2047272,
            "estimated_diameter_max": 194.9956979785
        }
    },
    "is_potentially_hazardous_asteroid": false,
    "close_approach_data": [
        {
            "close_approach_date": "1925-11-17",
            "close_approach_date_full": "1925-Nov-17 03:12",
            "epoch_date_close_approach": -1392410880000,
            "relative_velocity": {
                "kilometers_per_second": "11.7308595475",
                "kilometers_per_hour": "42231.094371054",
                "miles_per_hour": "26240.7597218363"
            },
            "miss_distance": {
                "astronomical": "0.1020150974",
                "lunar": "39.6838728886",
                "kilometers": "15261241.278882538",
                "miles": "9482895.6029855044"
            },
            "orbiting_body": "Earth"
        },
        {
            "close_approach_date": "2008-11-24",
            "close_approach_date_full": "2008-Nov-24 00:45",
            "epoch_date_close_approach": 1227487500000,
            "relative_velocity": {
                "kilometers_per_second": "10.0059652203",
                "kilometers_per_hour": "36021.474793246",
                "miles_per_hour": "22382.3436013922"
            },
            "miss_distance": {
                "astronomical": "0.039242628",
                "lunar": "15.265382292",
                "kilometers": "5870613.56200236",
                "miles": "3647830.115298168"
            },
            "orbiting_body": "Earth"
        },
        {
            "close_approach_date": "2080-10-28",
            "close_approach_date_full": "2080-Oct-28 08:19",
            "epoch_date_close_approach": 3497329140000,
            "relative_velocity": {
                "kilometers_per_second": "20.6125916971",
                "kilometers_per_hour": "74205.3301094192",
                "miles_per_hour": "46108.3063671555"
            },
            "miss_distance": {
                "astronomical": "0.4558814078",
                "lunar": "177.3378676342",
                "kilometers": "68198887.579481386",
                "miles": "42376823.7024636868"
            },
            "orbiting_body": "Earth"
        }
    ],
    "orbital_data": {
        "orbit_id": "9",
        "orbit_determination_date": "2017-04-06 09:02:09",
        "first_observation_date": "2008-11-20",
        "last_observation_date": "2008-11-23",
        "data_arc_in_days": 3,
        "observations_used": 41,
        "orbit_uncertainty": "8",
        "minimum_orbit_intersection": ".0391601",
        "jupiter_tisserand_invariant": "4.432",
        "epoch_osculation": "2454792.5",
        "eccentricity": ".3506208822443554",
        "semi_major_axis": "1.504537472736247",
        "inclination": "14.89717414391646",
        "ascending_node_longitude": "57.69518248669576",
        "orbital_period": "674.0668047643371",
        "perihelion_distance": ".977015216675771",
        "perihelion_argument": "37.91043262422144",
        "aphelion_distance": "2.032059728796722",
        "perihelion_time": "2454823.722961371389",
        "mean_anomaly": "343.3247001421027",
        "mean_motion": ".5340716935702847",
        "equinox": "J2000",
        "orbit_class": {
            "orbit_class_type": "APO",
            "orbit_class_description": "Near-Earth asteroid orbits which cross the Earth’s orbit similar to that of 1862 Apollo",
            "orbit_class_range": "a (semi-major axis) > 1.0 AU; q (perihelion) < 1.017 AU"
        }
    },
    "is_sentry_object": false
}